STARLETTE               
1 07646U 75010A   24189.39021881 -.00000131  00000+0  75799-5 0  9999
2 07646  49.8262  26.2619 0205640 238.1990 119.8729 13.82328886496354
LAGEOS 1                
1 08820U 76039A   24189.42838840 -.00000003  00000+0  00000+0 0  9996
2 08820 109.8612 296.2152 0044126  94.4347 322.3082  6.38665093867818
AJISAI (EGS)            
1 16908U 86061A   24190.19768831 -.00000123  00000+0 -17899-3 0  9998
2 16908  50.0066 167.5059 0011251 175.8210 315.8664 12.44506483392453
COSMOS 1989 (ETALON 1)  
1 19751U 89001C   24189.02540589 -.00000023  00000+0  00000+0 0  9992
2 19751  64.5618  96.5567 0023804 215.9704 199.3815  2.13156211276236
COSMOS 2024 (ETALON 2)  
1 20026U 89039C   24189.38622921 -.00000081  00000+0  00000+0 0  9994
2 20026  65.3293 334.8745 0019510 216.8916 151.2390  2.13204486273376
LAGEOS 2                
1 22195U 92070B   24189.15551341 -.00000009  00000+0  00000+0 0  9994
2 22195  52.6795 355.3740 0137524 236.4606 266.0920  6.47293408749458
STELLA                  
1 22824U 93061B   24189.50162968 -.00000013  00000+0  13282-4 0  9992
2 22824  98.8771 236.1023 0007140 133.1685   9.3629 14.27427224603526
LARETS                  
1 27944U 03042F   24190.16917547  .00000114  00000+0  31469-4 0  9993
2 27944  98.3180 330.6080 0013600  90.5030 269.7730 14.63530457109725
LARES                   
1 38077U 12006A   24189.38352588 -.00000038  00000+0  19317-5 0  9997
2 38077  69.4904  64.6582 0009631 336.8510  23.2081 12.54931513568015
LARES-2                 
1 53105U 22080A   24184.50975372  .00000034  00000+0  00000+0 0  9998
2 53105  70.1403 190.4302 0004949 135.3348 224.7731  6.38965278 46003
